[{"OBJECT_NAME":"STARLINK-6042","OBJECT_ID":"2023-078AT","EPOCH":"2026-03-09T22:26:13.300224","MEAN_MOTION":14.98333415,"ECCENTRICITY":0.00021339,"INCLINATION":69.9982,"RA_OF_ASC_NODE":273.9199,"ARG_OF_PERICENTER":272.1987,"MEAN_ANOMALY":87.8928,"EPHEMERIS_TYPE":0,"CLASSIFICATION_TYPE":"U","NORAD_CAT_ID":56808,"ELEMENT_SET_NO":999,"REV_AT_EPOCH":15445,"BSTAR":3.7160668e-5,"MEAN_MOTION_DOT":3.51e-6,"MEAN_MOTION_DDOT":0},{"OBJECT_NAME":"TOMORROW-S7","OBJECT_ID":"2025-081B","EPOCH":"2026-03-09T15:35:01.135680","MEAN_MOTION":14.99242141,"ECCENTRICITY":4.629e-5,"INCLINATION":45.3909,"RA_OF_ASC_NODE":132.557,"ARG_OF_PERICENTER":121.9907,"MEAN_ANOMALY":238.1016,"EPHEMERIS_TYPE":0,"CLASSIFICATION_TYPE":"U","NORAD_CAT_ID":63631,"ELEMENT_SET_NO":999,"REV_AT_EPOCH":4823,"BSTAR":0.00019092565,"MEAN_MOTION_DOT":2.135e-5,"MEAN_MOTION_DDOT":0}]
